     2              NAVIGATION DATA                         RINEX VERSION / TYPE
CCRINEXN V1.6.0 UX  CDDIS               28-SEP-13 15:33     PGM / RUN BY / DATE 
IGS BROADCAST EPHEMERIS FILE                                COMMENT             
    0.1676D-07  0.1490D-07 -0.1192D-06 -0.1192D-06          ION ALPHA           
    0.1147D+06  0.3277D+05 -0.2621D+06  0.6554D+05          ION BETA            
    0.651925802231D-08 0.177635683940D-13    61440     1760 DELTA-UTC: A0,A1,T,W
    16                                                      LEAP SECONDS        
                                                            END OF HEADER       
16 13  9 27 16  0  0.0-0.245800707489D-03 0.795807864051D-12 0.000000000000D+00
    0.111000000000D+03-0.299375000000D+02 0.407409827398D-08-0.230498799500D+01
   -0.170432031155D-05 0.707424001303D-02 0.564195215702D-05 0.515372076034D+04
    0.489600000000D+06-0.726431608200D-07 0.642834488088D+00-0.182539224625D-06
    0.986081524448D+00 0.286718750000D+03 0.137305878975D+00-0.791140097018D-08
    0.967897459671D-10 0.000000000000D+00 0.175900000000D+04 0.000000000000D+00
    0.280000000000D+01 0.000000000000D+00-0.977888703346D-08 0.111000000000D+03
    0.482400000000D+06 0.400000000000D+01 0.000000000000D+00 0.000000000000D+00
17 13  9 27 16  0  0.0-0.255308113992D-04-0.375166564481D-11 0.000000000000D+00
    0.100000000000D+03-0.586875000000D+02 0.436268172320D-08 0.302267899910D+01
   -0.301189720631D-05 0.852956308518D-02 0.889413058758D-05 0.515368937111D+04
    0.489600000000D+06 0.000000000000D+00 0.167821367320D+01-0.139698386192D-06
    0.966152640570D+00 0.207906250000D+03-0.219071041860D+01-0.780389649218D-08
    0.721458623076D-10 0.100000000000D+01 0.175900000000D+04 0.000000000000D+00
    0.200000000000D+01 0.000000000000D+00-0.102445483208D-07 0.100000000000D+03
    0.482418000000D+06 0.400000000000D+01 0.000000000000D+00 0.000000000000D+00
18 13  9 27 16  0  0.0 0.276335515082D-03 0.204636307899D-11 0.000000000000D+00
    0.380000000000D+02 0.122812500000D+02 0.535200864693D-08-0.174634168477D+01
    0.638887286186D-06 0.145923502278D-01 0.663474202156D-05 0.515363321495D+04
    0.489600000000D+06 0.348314642906D-06-0.255453942204D+01-0.558793544769D-07
    0.926989621387D+00 0.233312500000D+03-0.207714612888D+01-0.827034449305D-08
   -0.145720355552D-09 0.000000000000D+00 0.175900000000D+04 0.000000000000D+00
    0.200000000000D+01 0.000000000000D+00-0.107102096081D-07 0.380000000000D+02
    0.482400000000D+06 0.400000000000D+01 0.000000000000D+00 0.000000000000D+00
19 13  9 27 16  0  0.0-0.407275278121D-03-0.272848410532D-11 0.000000000000D+00
    0.470000000000D+02-0.463125000000D+02 0.455268963780D-08 0.218029645485D+01
   -0.236742198467D-05 0.956631253939D-02 0.872462987900D-05 0.515374610901D+04
    0.489600000000D+06-0.240281224251D-06 0.172981513726D+01 0.335276126862D-07
    0.963353842754D+00 0.214781250000D+03 0.385743542601D+00-0.796926052312D-08
    0.764317551180D-10 0.000000000000D+00 0.175900000000D+04 0.000000000000D+00
    0.200000000000D+01 0.000000000000D+00-0.144354999065D-07 0.470000000000D+02
    0.487440000000D+06 0.400000000000D+01 0.000000000000D+00 0.000000000000D+00
20 13  9 27 16  0  0.0 0.125355087221D-03 0.261479726760D-11 0.000000000000D+00
    0.470000000000D+02 0.753125000000D+01 0.545379860117D-08-0.126302740916D+01
    0.335276126862D-06 0.557472603396D-02 0.693090260029D-05 0.515366860390D+04
    0.489600000000D+06 0.931322574616D-08-0.260783901947D+01 0.178813934326D-06
    0.927858395769D+00 0.227687500000D+03 0.128661638679D+01-0.849035365731D-08
   -0.237867050975D-09 0.100000000000D+01 0.175900000000D+04 0.000000000000D+00
    0.200000000000D+01 0.000000000000D+00-0.791624188423D-08 0.470000000000D+02
    0.488130000000D+06 0.400000000000D+01 0.000000000000D+00 0.000000000000D+00
22 13  9 27 16  0  0.0 0.186898279935D-03 0.204636307899D-11 0.000000000000D+00
    0.270000000000D+02 0.915625000000D+01 0.539593904823D-08-0.232541125302D+01
    0.452622771263D-06 0.677631830331D-02 0.685639679432D-05 0.515364447784D+04
    0.489600000000D+06 0.558793544769D-07-0.255217874625D+01-0.763684511185D-07
    0.924744244018D+00 0.228875000000D+03-0.203581703127D+01-0.833177562333D-08
   -0.133219834855D-09 0.000000000000D+00 0.175900000000D+04 0.000000000000D+00
    0.200000000000D+01 0.000000000000D+00-0.172294676304D-07 0.270000000000D+02
    0.482400000000D+06 0.400000000000D+01 0.000000000000D+00 0.000000000000D+00
23 13  9 27 16  0  0.0 0.443500466645D-04-0.341060513165D-11 0.000000000000D+00
    0.600000000000D+02 0.389062500000D+02 0.456983320904D-08 0.175438490785D+01
    0.212155282497D-05 0.888712541200D-02 0.834278762341D-05 0.515365491295D+04
    0.489600000000D+06-0.987201929092D-07-0.149257879453D+01 0.894069671631D-07
    0.954117858679D+00 0.218156250000D+03-0.282135804715D+01-0.806712174229D-08
   -0.277868717205D-09 0.000000000000D+00 0.175900000000D+04 0.000000000000D+00
    0.200000000000D+01 0.000000000000D+00-0.200234353542D-07 0.600000000000D+02
    0.488370000000D+06 0.400000000000D+01 0.000000000000D+00 0.000000000000D+00
24 13  9 27 16  0  0.0-0.145058147609D-04-0.682121026330D-12 0.000000000000D+00
    0.900000000000D+02 0.493437500000D+02 0.454054627484D-08 0.116344917218D+01
    0.241026282310D-05 0.107207242400D-02 0.630691647530D-05 0.515366078186D+04
    0.489600000000D+06 0.167638063431D-07-0.465736023135D+00-0.279396772385D-07
    0.958488709725D+00 0.256968750000D+03 0.155282876109D+00-0.823141430002D-08
    0.109647424398D-09 0.100000000000D+01 0.175900000000D+04 0.000000000000D+00
    0.280000000000D+01 0.000000000000D+00 0.325962901115D-08 0.900000000000D+02
    0.482418000000D+06 0.400000000000D+01 0.000000000000D+00 0.000000000000D+00
25 13  9 27 16  0  0.0 0.151759013534D-03 0.397903932026D-11 0.000000000000D+00
    0.220000000000D+02-0.284375000000D+02 0.439804033889D-08-0.109991256412D+01
   -0.142678618431D-05 0.274366606027D-02 0.496767461300D-05 0.515371901321D+04
    0.489600000000D+06 0.109896063805D-06 0.584751370910D+00 0.484287738800D-07
    0.974246622517D+00 0.292187500000D+03 0.730844616966D+00-0.813783897366D-08
    0.617882880159D-10 0.000000000000D+00 0.175900000000D+04 0.000000000000D+00
    0.200000000000D+01 0.000000000000D+00 0.558793544769D-08 0.220000000000D+02
    0.482400000000D+06 0.400000000000D+01 0.000000000000D+00 0.000000000000D+00
26 13  9 27 16  0  0.0 0.210678204894D-03 0.187583282241D-10 0.000000000000D+00
    0.690000000000D+02 0.434687500000D+02 0.400195241167D-08 0.176131592551D+01
    0.191666185856D-05 0.210688369116D-01 0.916607677937D-05 0.515368805122D+04
    0.489600000000D+06-0.139698386192D-06-0.140930091890D+01-0.527128577232D-06
    0.977328050253D+00 0.210968750000D+03 0.125195367520D+01-0.779818196844D-08
   -0.117504894550D-09 0.100000000000D+01 0.175900000000D+04 0.000000000000D+00
    0.280000000000D+01 0.000000000000D+00-0.558793544769D-08 0.690000000000D+02
    0.482418000000D+06 0.400000000000D+01 0.000000000000D+00 0.000000000000D+00
27 13  9 27 16  0  0.0-0.414908863604D-04-0.443378667114D-11 0.000000000000D+00
    0.880000000000D+02-0.486250000000D+02 0.458161941427D-08 0.221964389827D+01
   -0.249221920967D-05 0.450691441074D-03 0.795722007752D-05 0.515366816521D+04
    0.489600000000D+06-0.167638063431D-07 0.163420234894D+01-0.745058059692D-08
    0.960765004405D+00 0.226281250000D+03 0.911607674153D+00-0.802819154926D-08
    0.839320675361D-10 0.000000000000D+00 0.175900000000D+04 0.000000000000D+00
    0.280000000000D+01 0.000000000000D+00 0.186264514923D-08 0.880000000000D+02
    0.482820000000D+06 0.400000000000D+01 0.000000000000D+00 0.000000000000D+00
28 13  9 27 16  0  0.0 0.296014826745D-03 0.306954461848D-11 0.000000000000D+00
    0.350000000000D+02-0.477812500000D+02 0.400730977768D-08-0.246930501052D+01
   -0.245124101639D-05 0.187964396318D-01 0.510178506374D-05 0.515365483856D+04
    0.489600000000D+06 0.221654772759D-06 0.648924826712D+00 0.115483999252D-06
    0.984549364993D+00 0.286625000000D+03-0.176188355236D+01-0.768424865123D-08
    0.150720563831D-09 0.100000000000D+01 0.175900000000D+04 0.000000000000D+00
    0.200000000000D+01 0.000000000000D+00-0.107102096081D-07 0.350000000000D+02
    0.482418000000D+06 0.400000000000D+01 0.000000000000D+00 0.000000000000D+00
29 13  9 27 16  0  0.0 0.474156811833D-03 0.306954461848D-11 0.000000000000D+00
    0.490000000000D+02-0.559687500000D+02 0.451375944477D-08-0.422296032748D+00
   -0.279396772385D-05 0.144715723582D-02 0.809505581856D-05 0.515357634354D+04
    0.489600000000D+06 0.465661287308D-07 0.168708901140D+01 0.186264514923D-08
    0.966822608774D+00 0.228156250000D+03-0.983598089346D+00-0.805319259065D-08
    0.107147320259D-09 0.000000000000D+00 0.175900000000D+04 0.000000000000D+00
    0.200000000000D+01 0.000000000000D+00-0.931322574616D-08 0.490000000000D+02
    0.482400000000D+06 0.400000000000D+01 0.000000000000D+00 0.000000000000D+00
30 13  9 27 16  0  0.0-0.558793544769D-05-0.516138243256D-10 0.000000000000D+00
    0.400000000000D+01-0.594687500000D+02 0.502520932014D-08-0.870580142472D+00
   -0.307336449623D-05 0.833355169743D-02 0.750087201595D-05 0.515361983871D+04
    0.489600000000D+06-0.558793544769D-07 0.155075918259D+01-0.102445483208D-06
    0.944458595349D+00 0.227906250000D+03-0.753047507520D+00-0.839713548868D-08
    0.166792661870D-09 0.000000000000D+00 0.175900000000D+04 0.000000000000D+00
    0.200000000000D+01 0.630000000000D+02-0.232830643654D-08 0.400000000000D+01
    0.482400000000D+06 0.400000000000D+01 0.000000000000D+00 0.000000000000D+00
